HORYU-2
1 38340U 12025D   15266.85823753  .00000734  00000-0  11839-3 0  9998
2 38340  98.3246 239.4022 0012697 137.4395 222.7799 14.74497203180076
RS-40
1 38735U 12041C   15267.22890390  .00000040  00000-0  21992-3 0  9998
2 38735  82.4805 358.2236 0016046 327.9830  32.0274 12.42570170143211
PROITERES
1 38756U 12047B   15267.31822613  .00000366  00000-0  61100-4 0  9997
2 38756  98.2250   8.3122 0012027 347.4525  12.6386 14.75923336163622
BEESAT-3
1 39134U 13015E   15266.65662687  .00003621  00000-0  21271-3 0  9994
2 39134 064.8715 102.2319 0025377 239.3782 120.4839 15.13096363133213
BEESAT-2
1 39136U 13015G   15266.69133398  .00002878  00000-0  17978-3 0  9994
2 39136 064.8723 105.3629 0026104 237.6984 122.1611 15.11308854133155
ZACUBE-1
1 39417U 13066B   15266.91877043  .00000750  00000-0  10317-3 0  9996
2 39417 097.7202 325.6892 0060511 173.5280 186.6728 14.79901765099237
TRITON-1
1 39427U 13066M   15266.92390264  .00000525  00000-0  93600-4 0  9990
2 39427 097.7049 311.8207 0114827 211.2114 148.2240 14.66796623098143
DELFIN3XT
1 39428U 13066N   15267.07807647  .00000904  00000-0  15714-3 0  9996
2 39428  97.7059 310.1058 0123105 216.2685 143.0129 14.65635994 98228
GOMX-1
1 39430U 13066Q   15267.36876241  .00000429  00000-0  88677-4 0  9998
2 39430  97.6982 303.2842 0152091 237.1344 121.5138 14.58209153 97832
MO-76
1 39436U 13066W   15267.16777172  .00016763  00000-0  10313-2 0  9993
2 39436  97.7391 344.1106 0021869 126.5921 233.7324 15.09898792100412
LO-74
1 39440U 13066AA  15267.20238728  .00000720  00000-0  10951-3 0  9997
2 39440  97.7140 320.4568 0081757 186.7836 173.2275 14.74704923 98921
PUCPSAT-1
1 39442U 13066AC  15266.88689781  .00001269  00000-0  13976-3 0  9990
2 39442 097.7309 334.6203 0033629 154.9657 205.3200 14.88888517097938
SPROUT
1 39770U 14029E   15267.36952634  .00001912  00000-0  23531-3 0  9991
2 39770  97.8729   2.8602 0008711 231.3720 128.6736 14.84115254 72347
POPSAT-HIP1
1 40028U 14033U   15267.36412118  .00000906  00000-0  10671-3 0  9995
2 40028  97.9449 167.8254 0013191 213.5505 146.4900 14.87244905 68526
EO-80
1 40032U 14033Y   15267.31371491  .00000977  00000-0  11543-3 0  9990
2 40032  97.9411 167.3539 0011347 207.4031 152.6587 14.86928836 68507
VELOX-1
1 40057U 14034E   15267.38306115  .00000883  00000-0  13582-3 0  9997
2 40057  98.2114 347.0976 0010242 285.6832  74.3240 14.76064219 66510
DAURIA DX 1
1 40071U 14037C   15267.34581960  .00000408  00000-0  60802-4 0  9996
2 40071  98.3501 342.8089 0007411 285.3894  74.6495 14.80506381 65468
UKUBE-1
1 40074U 14037F   15267.39237382  .00000917  00000-0  12169-3 0  9997
2 40074  98.3526 343.9646 0003689 295.8507  64.2332 14.82427232 65531
HODOYOSHI-1
1 40299U 14070B   15267.37695756  .00015764  00000-0  73127-3 0  9991
2 40299  97.4511 347.6618 0014236 140.9883 291.2865 15.20041546 48886
CHUBUSAT-1
1 40300U 14070C   15267.37193440  .00002756  00000-0  13725-3 0  9992
2 40300  97.4486 346.6566 0022673 145.7744 285.5383 15.18203296 48828
QSAT-EOS
1 40301U 14070D   15267.37065113  .00005348  00000-0  26246-3 0  9990
2 40301  97.4441 345.9070 0032011 147.4804 285.1116 15.18060560 48785
TSUBAME
1 40302U 14070E   15267.38330245  .00002865  00000-0  15989-3 0  9996
2 40302  97.4413 344.1330 0043129 153.3245 275.9444 15.13549544 48670
FIREBIRD FU3
1 40377U 15003B   15267.09746500  .00004611  00000-0  22794-3 0  9991
2 40377  99.1088 318.9150 0153595 289.4839  68.9848 15.08756152 35456
FIREBIRD FU4
1 40378U 15003C   15267.36002401  .00004744  00000-0  23408-3 0  9997
2 40378  99.1090 319.2344 0153828 288.5748  69.8820 15.08760270 35497
GRIFEX
1 40379U 15003D   15267.38407393  .00002883  00000-0  14773-3 0  9996
2 40379  99.1099 319.0509 0155437 290.2148  68.2419 15.07833627 35482
LAMBDA-SAT
1 40458U 98067GB  15136.30676273  .20783109  12527-4  14817-2 0  9995
2 40458 051.6075 233.7697 0010355 318.5347 043.1720 16.39926603 21161
NO-84
1 40654U          15266.34912250  .00014583  00000-0  35695-3 0 01315
2 40654 054.9894 153.9286 0242302 130.1618 232.0891 15.16154835019056
NO-83
1 40655U          15266.29505324  .00022025  00000-0  52147-3 0 01388
2 40655 054.9873 153.6258 0238437 130.4397 231.7686 15.17359463019054
DEORBITSAIL
1 40719U 15032E   15266.84109593  .00001533  00000-0  23657-3 0  9999
2 40719  98.0426 155.4891 0017943  19.0538 341.1338 14.74722844 11070
OBJECT A
1 40899U 15049A   15267.63178446  .00002837  00000-0  15882-3 0  9996
2 40899  97.4566 275.7006 0014604 256.9452 103.0667 15.13378827   710
OBJECT B
1 40900U 15049B   15267.69834628  .00005002  00000-0  28114-3 0  9995
2 40900  97.4523 275.7607 0014612 258.2274 101.7832 15.13233442   788
OBJECT C
1 40901U 15049C   15267.69858956  .00003677  00000-0  20715-3 0  9991
2 40901  97.4652 275.7699 0013336 252.8403 107.1884 15.13164501311982
OBJECT D
1 40902U 15049D   15267.69908523  .00004240  00000-0  23987-3 0  9999
2 40902  97.4506 275.7603 0013442 250.0915 109.9382 15.13008570   747
OBJECT F
1 40904U 15049F   15267.70004514  .00001450  00000-0  82773-4 0  9999
2 40904  97.4591 275.7639 0013799 244.5804 115.4509 15.12686664132825
OBJECT J
1 40907U 15049J   15267.70194362  .00002912  00000-0  16899-3 0  9992
2 40907  97.4562 275.7589 0014126 232.6766 127.3685 15.12087821133200
OBJECT M
1 40910U 15049M   15267.70245326  .00004074  00000-0  23736-3 0  9992
2 40910  97.4586 275.7596 0015453 231.5110 128.5250 15.11928478   602
OBJECT N
1 40911U 15049N   15267.70191708  .00003056  00000-0  17731-3 0  9994
2 40911  97.4599 275.7614 0014177 234.0207 126.0217 15.12097212   616
OBJECT P
1 40912U 15049P   15267.69733510  .00004056  00000-0  22517-3 0  9995
2 40912  97.4598 275.7677 0016044 230.0673 129.9665 15.13652642   617
